IRIDIUM 106             
1 41917U 17003A   24175.66571801  .00000312  00000+0  10419-3 0  9999
2 41917  86.3971  30.8801 0002561  94.0948 266.0540 14.34220208389500
IRIDIUM 103             
1 41918U 17003B   24176.56002513  .00000018  00000+0 -45703-6 0  9990
2 41918  86.3968  30.4078 0001758  95.3740 264.7657 14.34217638389664
IRIDIUM 109             
1 41919U 17003C   24176.56636764  .00000136  00000+0  41476-4 0  9993
2 41919  86.3971  30.4528 0001911  82.1259 278.0154 14.34218253389641
IRIDIUM 102             
1 41920U 17003D   24176.11604480 -.00000031  00000+0 -18214-4 0  9996
2 41920  86.3968  30.5799 0002115  81.3807 278.7629 14.34217302389645
IRIDIUM 105             
1 41921U 17003E   24175.94727370  .00000350  00000+0  11784-3 0  9997
2 41921  86.3977 359.0888 0002051  92.3704 267.7727 14.34226353391478
IRIDIUM 104             
1 41922U 17003F   24176.54735842  .00000309  00000+0  10338-3 0  9996
2 41922  86.3970  30.4313 0001767  81.4050 278.7346 14.34216483389694
IRIDIUM 114             
1 41923U 17003G   24176.55368365  .00000034  00000+0  51488-5 0  9998
2 41923  86.3970  30.4146 0002387  90.8010 269.3459 14.34217872389692
IRIDIUM 108             
1 41924U 17003H   24176.51220419  .00000209  00000+0  67531-4 0  9991
2 41924  86.3971 358.7768 0002396  91.7125 268.4345 14.34218318391544
