<?xml version="1.0" encoding="UTF-8"?>
<ndm xmlns:xsi="http://www.w3.org/2001/XMLSchema-instance" xsi:noNamespaceSchemaLocation="https://sanaregistry.org/r/ndmxml_unqualified/ndmxml-2.0.0-master-2.0.xsd">
<omm id="CCSDS_OMM_VERS" version="2.0">
<header><CREATION_DATE/><ORIGINATOR/></header><body><segment><metadata><OBJECT_NAME>IRIDIUM 106</OBJECT_NAME><OBJECT_ID>2017-003A</OBJECT_ID><CENTER_NAME>EARTH</CENTER_NAME><REF_FRAME>TEME</REF_FRAME><TIME_SYSTEM>UTC</TIME_SYSTEM><MEAN_ELEMENT_THEORY>SGP4</MEAN_ELEMENT_THEORY></metadata><data><meanElements><EPOCH>2024-06-23T15:58:38.036064</EPOCH><MEAN_MOTION>14.34220208</MEAN_MOTION><ECCENTRICITY>.0002561</ECCENTRICITY><INCLINATION>86.3971</INCLINATION><RA_OF_ASC_NODE>30.8801</RA_OF_ASC_NODE><ARG_OF_PERICENTER>94.0948</ARG_OF_PERICENTER><MEAN_ANOMALY>266.0540</MEAN_ANOMALY></meanElements><tleParameters><EPHEMERIS_TYPE>0</EPHEMERIS_TYPE><CLASSIFICATION_TYPE>U</CLASSIFICATION_TYPE><NORAD_CAT_ID>41917</NORAD_CAT_ID><ELEMENT_SET_NO>999</ELEMENT_SET_NO><REV_AT_EPOCH>38950</REV_AT_EPOCH><BSTAR>.10419E-3</BSTAR><MEAN_MOTION_DOT>.312E-5</MEAN_MOTION_DOT><MEAN_MOTION_DDOT>0</MEAN_MOTION_DDOT></tleParameters></data></segment></body></omm>
<omm id="CCSDS_OMM_VERS" version="2.0">
<header><CREATION_DATE/><ORIGINATOR/></header><body><segment><metadata><OBJECT_NAME>IRIDIUM 103</OBJECT_NAME><OBJECT_ID>2017-003B</OBJECT_ID><CENTER_NAME>EARTH</CENTER_NAME><REF_FRAME>TEME</REF_FRAME><TIME_SYSTEM>UTC</TIME_SYSTEM><MEAN_ELEMENT_THEORY>SGP4</MEAN_ELEMENT_THEORY></metadata><data><meanElements><EPOCH>2024-06-24T13:26:26.171232</EPOCH><MEAN_MOTION>14.34217638</MEAN_MOTION><ECCENTRICITY>.0001758</ECCENTRICITY><INCLINATION>86.3968</INCLINATION><RA_OF_ASC_NODE>30.4078</RA_OF_ASC_NODE><ARG_OF_PERICENTER>95.3740</ARG_OF_PERICENTER><MEAN_ANOMALY>264.7657</MEAN_ANOMALY></meanElements><tleParameters><EPHEMERIS_TYPE>0</EPHEMERIS_TYPE><CLASSIFICATION_TYPE>U</CLASSIFICATION_TYPE><NORAD_CAT_ID>41918</NORAD_CAT_ID><ELEMENT_SET_NO>999</ELEMENT_SET_NO><REV_AT_EPOCH>38966</REV_AT_EPOCH><BSTAR>-.45703E-6</BSTAR><MEAN_MOTION_DOT>.18E-6</MEAN_MOTION_DOT><MEAN_MOTION_DDOT>0</MEAN_MOTION_DDOT></tleParameters></data></segment></body></omm>
<omm id="CCSDS_OMM_VERS" version="2.0">
<header><CREATION_DATE/><ORIGINATOR/></header><body><segment><metadata><OBJECT_NAME>IRIDIUM 109</OBJECT_NAME><OBJECT_ID>2017-003C</OBJECT_ID><CENTER_NAME>EARTH</CENTER_NAME><REF_FRAME>TEME</REF_FRAME><TIME_SYSTEM>UTC</TIME_SYSTEM><MEAN_ELEMENT_THEORY>SGP4</MEAN_ELEMENT_THEORY></metadata><data><meanElements><EPOCH>2024-06-24T13:35:34.164096</EPOCH><MEAN_MOTION>14.34218253</MEAN_MOTION><ECCENTRICITY>.0001911</ECCENTRICITY><INCLINATION>86.3971</INCLINATION><RA_OF_ASC_NODE>30.4528</RA_OF_ASC_NODE><ARG_OF_PERICENTER>82.1259</ARG_OF_PERICENTER><MEAN_ANOMALY>278.0154</MEAN_ANOMALY></meanElements><tleParameters><EPHEMERIS_TYPE>0</EPHEMERIS_TYPE><CLASSIFICATION_TYPE>U</CLASSIFICATION_TYPE><NORAD_CAT_ID>41919</NORAD_CAT_ID><ELEMENT_SET_NO>999</ELEMENT_SET_NO><REV_AT_EPOCH>38964</REV_AT_EPOCH><BSTAR>.41476E-4</BSTAR><MEAN_MOTION_DOT>.136E-5</MEAN_MOTION_DOT><MEAN_MOTION_DDOT>0</MEAN_MOTION_DDOT></tleParameters></data></segment></body></omm>
<omm id="CCSDS_OMM_VERS" version="2.0">
<header><CREATION_DATE/><ORIGINATOR/></header><body><segment><metadata><OBJECT_NAME>IRIDIUM 102</OBJECT_NAME><OBJECT_ID>2017-003D</OBJECT_ID><CENTER_NAME>EARTH</CENTER_NAME><REF_FRAME>TEME</REF_FRAME><TIME_SYSTEM>UTC</TIME_SYSTEM><MEAN_ELEMENT_THEORY>SGP4</MEAN_ELEMENT_THEORY></metadata><data><meanElements><EPOCH>2024-06-24T02:47:06.270720</EPOCH><MEAN_MOTION>14.34217302</MEAN_MOTION><ECCENTRICITY>.0002115</ECCENTRICITY><INCLINATION>86.3968</INCLINATION><RA_OF_ASC_NODE>30.5799</RA_OF_ASC_NODE><ARG_OF_PERICENTER>81.3807</ARG_OF_PERICENTER><MEAN_ANOMALY>278.7629</MEAN_ANOMALY></meanElements><tleParameters><EPHEMERIS_TYPE>0</EPHEMERIS_TYPE><CLASSIFICATION_TYPE>U</CLASSIFICATION_TYPE><NORAD_CAT_ID>41920</NORAD_CAT_ID><ELEMENT_SET_NO>999</ELEMENT_SET_NO><REV_AT_EPOCH>38964</REV_AT_EPOCH><BSTAR>-.18214E-4</BSTAR><MEAN_MOTION_DOT>-.31E-6</MEAN_MOTION_DOT><MEAN_MOTION_DDOT>0</MEAN_MOTION_DDOT></tleParameters></data></segment></body></omm>
<omm id="CCSDS_OMM_VERS" version="2.0">
<header><CREATION_DATE/><ORIGINATOR/></header><body><segment><metadata><OBJECT_NAME>IRIDIUM 105</OBJECT_NAME><OBJECT_ID>2017-003E</OBJECT_ID><CENTER_NAME>EARTH</CENTER_NAME><REF_FRAME>TEME</REF_FRAME><TIME_SYSTEM>UTC</TIME_SYSTEM><MEAN_ELEMENT_THEORY>SGP4</MEAN_ELEMENT_THEORY></metadata><data><meanElements><EPOCH>2024-06-23T22:44:04.447680</EPOCH><MEAN_MOTION>14.34226353</MEAN_MOTION><ECCENTRICITY>.0002051</ECCENTRICITY><INCLINATION>86.3977</INCLINATION><RA_OF_ASC_NODE>359.0888</RA_OF_ASC_NODE><ARG_OF_PERICENTER>92.3704</ARG_OF_PERICENTER><MEAN_ANOMALY>267.7727</MEAN_ANOMALY></meanElements><tleParameters><EPHEMERIS_TYPE>0</EPHEMERIS_TYPE><CLASSIFICATION_TYPE>U</CLASSIFICATION_TYPE><NORAD_CAT_ID>41921</NORAD_CAT_ID><ELEMENT_SET_NO>999</ELEMENT_SET_NO><REV_AT_EPOCH>39147</REV_AT_EPOCH><BSTAR>.11784E-3</BSTAR><MEAN_MOTION_DOT>.35E-5</MEAN_MOTION_DOT><MEAN_MOTION_DDOT>0</MEAN_MOTION_DDOT></tleParameters></data></segment></body></omm>
<omm id="CCSDS_OMM_VERS" version="2.0">
<header><CREATION_DATE/><ORIGINATOR/></header><body><segment><metadata><OBJECT_NAME>IRIDIUM 104</OBJECT_NAME><OBJECT_ID>2017-003F</OBJECT_ID><CENTER_NAME>EARTH</CENTER_NAME><REF_FRAME>TEME</REF_FRAME><TIME_SYSTEM>UTC</TIME_SYSTEM><MEAN_ELEMENT_THEORY>SGP4</MEAN_ELEMENT_THEORY></metadata><data><meanElements><EPOCH>2024-06-24T13:08:11.767488</EPOCH><MEAN_MOTION>14.34216483</MEAN_MOTION><ECCENTRICITY>.0001767</ECCENTRICITY><INCLINATION>86.3970</INCLINATION><RA_OF_ASC_NODE>30.4313</RA_OF_ASC_NODE><ARG_OF_PERICENTER>81.4050</ARG_OF_PERICENTER><MEAN_ANOMALY>278.7346</MEAN_ANOMALY></meanElements><tleParameters><EPHEMERIS_TYPE>0</EPHEMERIS_TYPE><CLASSIFICATION_TYPE>U</CLASSIFICATION_TYPE><NORAD_CAT_ID>41922</NORAD_CAT_ID><ELEMENT_SET_NO>999</ELEMENT_SET_NO><REV_AT_EPOCH>38969</REV_AT_EPOCH><BSTAR>.10338E-3</BSTAR><MEAN_MOTION_DOT>.309E-5</MEAN_MOTION_DOT><MEAN_MOTION_DDOT>0</MEAN_MOTION_DDOT></tleParameters></data></segment></body></omm>
<omm id="CCSDS_OMM_VERS" version="2.0">
<header><CREATION_DATE/><ORIGINATOR/></header><body><segment><metadata><OBJECT_NAME>IRIDIUM 114</OBJECT_NAME><OBJECT_ID>2017-003G</OBJECT_ID><CENTER_NAME>EARTH</CENTER_NAME><REF_FRAME>TEME</REF_FRAME><TIME_SYSTEM>UTC</TIME_SYSTEM><MEAN_ELEMENT_THEORY>SGP4</MEAN_ELEMENT_THEORY></metadata><data><meanElements><EPOCH>2024-06-24T13:17:18.267360</EPOCH><MEAN_MOTION>14.34217872</MEAN_MOTION><ECCENTRICITY>.0002387</ECCENTRICITY><INCLINATION>86.3970</INCLINATION><RA_OF_ASC_NODE>30.4146</RA_OF_ASC_NODE><ARG_OF_PERICENTER>90.8010</ARG_OF_PERICENTER><MEAN_ANOMALY>269.3459</MEAN_ANOMALY></meanElements><tleParameters><EPHEMERIS_TYPE>0</EPHEMERIS_TYPE><CLASSIFICATION_TYPE>U</CLASSIFICATION_TYPE><NORAD_CAT_ID>41923</NORAD_CAT_ID><ELEMENT_SET_NO>999</ELEMENT_SET_NO><REV_AT_EPOCH>38969</REV_AT_EPOCH><BSTAR>.51488E-5</BSTAR><MEAN_MOTION_DOT>.34E-6</MEAN_MOTION_DOT><MEAN_MOTION_DDOT>0</MEAN_MOTION_DDOT></tleParameters></data></segment></body></omm>
<omm id="CCSDS_OMM_VERS" version="2.0">
<header><CREATION_DATE/><ORIGINATOR/></header><body><segment><metadata><OBJECT_NAME>IRIDIUM 108</OBJECT_NAME><OBJECT_ID>2017-003H</OBJECT_ID><CENTER_NAME>EARTH</CENTER_NAME><REF_FRAME>TEME</REF_FRAME><TIME_SYSTEM>UTC</TIME_SYSTEM><MEAN_ELEMENT_THEORY>SGP4</MEAN_ELEMENT_THEORY></metadata><data><meanElements><EPOCH>2024-06-24T12:17:34.442016</EPOCH><MEAN_MOTION>14.34218318</MEAN_MOTION><ECCENTRICITY>.0002396</ECCENTRICITY><INCLINATION>86.3971</INCLINATION><RA_OF_ASC_NODE>358.7768</RA_OF_ASC_NODE><ARG_OF_PERICENTER>91.7125</ARG_OF_PERICENTER><MEAN_ANOMALY>268.4345</MEAN_ANOMALY></meanElements><tleParameters><EPHEMERIS_TYPE>0</EPHEMERIS_TYPE><CLASSIFICATION_TYPE>U</CLASSIFICATION_TYPE><NORAD_CAT_ID>41924</NORAD_CAT_ID><ELEMENT_SET_NO>999</ELEMENT_SET_NO><REV_AT_EPOCH>39154</REV_AT_EPOCH><BSTAR>.67531E-4</BSTAR><MEAN_MOTION_DOT>.209E-5</MEAN_MOTION_DOT><MEAN_MOTION_DDOT>0</MEAN_MOTION_DDOT></tleParameters></data></segment></body></omm>

</ndm>
